STARLINK-1965
1 47566U 21009U   26061.16668981  .00187214  00000+0  10137-2 0  9996
2 47566  53.0164 320.4000 0010364 115.6080 185.9048 15.78947761  5996
